DONGPO 02               
1 53452U 22098J   26182.14624179  .00167110  00000+0  98806-3 0  9992
2 53452  97.5540 314.5769 0003659 244.1897 115.8991 15.77627463216993
DONGPO 01               
1 53453U 22098K   26182.72924296  .00134102  00000+0  88326-3 0  9991
2 53453  97.5612 315.6990 0002501 223.1583 136.9486 15.75255596217048
STARLINK-4400           
1 53468U 22099D   26182.59986682  .00000099  00000+0  10777-4 0  9993
2 53468  97.2859 300.8827 0001513 112.2170 247.9218 15.05656435213111
STARLINK-4621           
1 53676U 22105AE  26182.40326430  .00000943  00000+0  69261-4 0  9991
2 53676  97.2919  60.7145 0002363  88.9997 271.1502 15.05653006210342
SHERPA-LTC2             
1 53754U 22107BG  26182.26248233  .00004129  00000+0  21770-3 0  9990
2 53754  53.2354 160.7415 0392868 265.5775  90.0230 14.69824285204611
CENTISPACE-1 S3         
1 53757U 22108A   26182.57155475  .00000471  00000+0  13287-3 0  9993
2 53757  53.5341 355.7783 0010221  32.5458 327.6146 14.61269989203639
CENTISPACE-1 S4         
1 53758U 22108B   26182.61748140  .00000623  00000+0  16123-3 0  9997
2 53758  53.5316 353.0377 0009413  21.8732 338.2644 14.61955161203678
BLUEWALKER-3            
1 53807U 22111AL  26180.78366297  .00006618  00000+0  18214-3 0  9994
2 53807  53.2300 334.8282 0005308 202.6401 157.4371 15.38427065212148
YUNHAI-1 03             
1 53877U 22115A   26182.57390270  .00000350  00000+0  14470-3 0  9999
2 53877  98.5535 180.5384 0005045  19.4685 340.6691 14.32728419197572
CENTISPACE-1 S5         
1 54020U 22126A   26182.56804084  .00000767  00000+0  18498-3 0  9990
2 54020  54.9975 155.4110 0014724  98.9790 261.2872 14.63035221199148
CENTISPACE-1 S6         
1 54021U 22126B   26182.56838165  .00000322  00000+0  10042-3 0  9992
2 54021  54.9977 157.3420 0016546  99.6547 260.6317 14.62300283199103
OTB-3-GAZELLE           
1 54023U 22127A   26182.48583178  .00000163  00000+0  61810-4 0  9990
2 54023  98.3949 173.9727 0013899 141.1579 219.0613 14.42679712196429
ASO-S                   
1 54029U 22129A   26182.58665800  .00000259  00000+0  75051-4 0  9990
2 54029  98.2749 187.4608 0015409  52.0015 308.2570 14.52069022197516
HJ-2E                   
1 54035U 22132A   26182.61346228  .00009901  00000+0  42774-3 0  9993
2 54035  97.3794 186.7313 0018721 323.0204  36.9741 15.22527689206612
COSMOS 2561             
1 54109U 22137A   26182.54134951  .00015822  00000+0  26338-3 0  9997
2 54109  96.9172 241.0071 0008790 342.1279  17.9664 15.52060592208572
GONETS-M 23             
1 54150U 22139A   26182.59122766  .00000016  00000+0  43287-4 0  9993
2 54150  82.5082 339.3417 0021528 187.6664 172.4090 12.42891404167437
GONETS-M 24             
1 54151U 22139B   26182.64479965  .00000028  00000+0  12879-3 0  9991
2 54151  82.4998 338.3583 0016601 197.3611 162.6903 12.42892096167445
GONETS-M 25             
1 54152U 22139C   26182.63120943  .00000012  00000+0  12038-4 0  9991
2 54152  82.5064 339.0609 0020524 196.4250 163.6167 12.42890483167447
SKIF-D                  
1 54153U 22139D   26180.64816046  .00000003  00000+0  00000+0 0  9998
2 54153  89.9495  96.6644 0007407 193.5770 166.4619  5.00427113 64735
MATS                    
1 54227U 22147A   26182.53931512  .00003777  00000+0  26689-3 0  9991
2 54227  97.6826 184.0739 0013588 144.6098 215.6033 15.05445938199923
EOS-6 (OCEANSAT-3)      
1 54361U 22158A   26182.61478124  .00000286  00000+0  90615-4 0  9999
2 54361  98.3548 280.6181 0000471  54.2776 305.8460 14.47008826189922
DONGPO 09               
1 54685U 22167D   26182.60732906  .00014132  00000+0  39685-3 0  9992
2 54685  97.6904 354.2610 0003458  83.6297 276.5340 15.36657446197664
DONGPO 08               
1 54686U 22167E   26182.61321804  .00013053  00000+0  39940-3 0  9990
2 54686  97.6870 351.3765 0009353 115.0597 245.1617 15.33937342197537
2022-167F               
1 54687U 22167F   26182.50153949  .00452548  91741-4  84185-3 0  9996
2 54687  97.6048  12.2781 0003877 246.7559 113.3311 16.01062630199119
DONGPO 10               
1 54689U 22167H   26182.61223612  .00013140  00000+0  39217-3 0  9995
2 54689  97.6950 353.3611 0005983  69.5445 290.6439 15.34750016197574
JILIN-1 GAOFEN 03D48    
1 54695U 22167P   26182.60268541  .00013610  00000+0  39605-3 0  9994
2 54695  97.6885 352.7341 0007348  72.3436 287.8608 15.35531004197605
STAR VIBE               
1 55009U 23001A   26182.63399669  .00018425  00000+0  41900-3 0  9991
2 55009  97.3163 247.1591 0006679  72.1569 288.0407 15.43018908194458
BRO-8                   
1 55011U 23001C   26182.57874060  .00038442  00000+0  68612-3 0  9990
2 55011  97.3200 247.9780 0006276  83.9743 276.2223 15.49945539194436
CONNECTA T1.2           
1 55012U 23001D   26182.16890926  .00056686  00000+0  94414-3 0  9994
2 55012  97.3257 253.1164 0005061  58.8774 301.2975 15.51821773194710
