OBJECT_NAME,OBJECT_ID,EPOCH,MEAN_MOTION,ECCENTRICITY,INCLINATION,RA_OF_ASC_NODE,ARG_OF_PERICENTER,MEAN_ANOMALY,EPHEMERIS_TYPE,CLASSIFICATION_TYPE,NORAD_CAT_ID,ELEMENT_SET_NO,REV_AT_EPOCH,BSTAR,MEAN_MOTION_DOT,MEAN_MOTION_DDOT
DONGPO 02,2022-098J,2026-07-01T03:30:35.290656,15.77627463,.00036599,97.5540,314.5769,244.1897,115.8991,0,U,53452,999,21699,.98806048E-3,.16711E-2,0
DONGPO 01,2022-098K,2026-07-01T17:30:06.591744,15.75255596,.0002501,97.5612,315.6990,223.1583,136.9486,0,U,53453,999,21704,.88326E-3,.134102E-2,0
STARLINK-4400,2022-099D,2026-07-01T14:23:48.493248,15.05656435,.00015137,97.2859,300.8827,112.2170,247.9218,0,U,53468,999,21311,.10776843E-4,.99E-6,0
STARLINK-4621,2022-105AE,2026-07-01T09:40:42.035520,15.05653006,.00023634,97.2919,60.7145,88.9997,271.1502,0,U,53676,999,21034,.69261194E-4,.943E-5,0
SHERPA-LTC2,2022-107BG,2026-07-01T06:17:58.473312,14.69824285,.03928689,53.2354,160.7415,265.5775,90.0230,0,U,53754,999,20461,.21770374E-3,.4129E-4,0
CENTISPACE-1 S3,2022-108A,2026-07-01T13:43:02.330400,14.61269989,.00102213,53.5341,355.7783,32.5458,327.6146,0,U,53757,999,20363,.13287343E-3,.471E-5,0
CENTISPACE-1 S4,2022-108B,2026-07-01T14:49:10.392960,14.61955161,.00094136,53.5316,353.0377,21.8732,338.2644,0,U,53758,999,20367,.1612269E-3,.623E-5,0
BLUEWALKER-3,2022-111AL,2026-06-29T18:48:28.480608,15.38427065,.0005308,53.2300,334.8282,202.6401,157.4371,0,U,53807,999,21214,.18214365E-3,.6618E-4,0
YUNHAI-1 03,2022-115A,2026-07-01T13:46:25.193280,14.32728419,.00050458,98.5535,180.5384,19.4685,340.6691,0,U,53877,999,19757,.14469703E-3,.35E-5,0
CENTISPACE-1 S5,2022-126A,2026-07-01T13:37:58.728576,14.63035221,.00147248,54.9975,155.4110,98.9790,261.2872,0,U,54020,999,19914,.18498321E-3,.767E-5,0
CENTISPACE-1 S6,2022-126B,2026-07-01T13:38:28.174560,14.62300283,.00165465,54.9977,157.3420,99.6547,260.6317,0,U,54021,999,19910,.10042289E-3,.322E-5,0
OTB-3-GAZELLE,2022-127A,2026-07-01T11:39:35.865792,14.42679712,.00138994,98.3949,173.9727,141.1579,219.0613,0,U,54023,999,19642,.61809508E-4,.163E-5,0
ASO-S,2022-129A,2026-07-01T14:04:47.251200,14.52069022,.00154091,98.2749,187.4608,52.0015,308.2570,0,U,54029,999,19751,.75051424E-4,.259E-5,0
HJ-2E,2022-132A,2026-07-01T14:43:23.140992,15.22527689,.00187216,97.3794,186.7313,323.0204,36.9741,0,U,54035,999,20661,.4277395E-3,.9901E-4,0
COSMOS 2561,2022-137A,2026-07-01T12:59:32.597664,15.52060592,.000879,96.9172,241.0071,342.1279,17.9664,0,U,54109,999,20857,.26338E-3,.15822E-3,0
GONETS-M 23,2022-139A,2026-07-01T14:11:22.069824,12.42891404,.00215284,82.5082,339.3417,187.6664,172.4090,0,U,54150,999,16743,.43287073E-4,.16E-6,0
GONETS-M 24,2022-139B,2026-07-01T15:28:30.689760,12.42892096,.00166018,82.4998,338.3583,197.3611,162.6903,0,U,54151,999,16744,.12879331E-3,.28E-6,0
GONETS-M 25,2022-139C,2026-07-01T15:08:56.494752,12.42890483,.00205245,82.5064,339.0609,196.4250,163.6167,0,U,54152,999,16744,.12038304E-4,.12E-6,0
SKIF-D,2022-139D,2026-06-29T15:33:21.063744,5.00427113,.00074078,89.9495,96.6644,193.5770,166.4619,0,U,54153,999,6473,0,.3E-7,0
MATS,2022-147A,2026-07-01T12:56:36.826368,15.05445938,.00135885,97.6826,184.0739,144.6098,215.6033,0,U,54227,999,19992,.26688982E-3,.3777E-4,0
EOS-6 (OCEANSAT-3),2022-158A,2026-07-01T14:45:17.099136,14.47008826,.00004714,98.3548,280.6181,54.2776,305.8460,0,U,54361,999,18992,.90615141E-4,.286E-5,0
DONGPO 09,2022-167D,2026-07-01T14:34:33.230784,15.36657446,.00034585,97.6904,354.2610,83.6297,276.5340,0,U,54685,999,19766,.39685488E-3,.14132E-3,0
DONGPO 08,2022-167E,2026-07-01T14:43:02.038656,15.33937342,.0009353,97.6870,351.3765,115.0597,245.1617,0,U,54686,999,19753,.39939747E-3,.13053E-3,0
2022-167F,2022-167F,2026-07-01T12:02:13.011936,16.01062630,.00038776,97.6048,12.2781,246.7559,113.3311,0,U,54687,999,19911,.8418468E-3,.452548E-2,.91740517E-4
DONGPO 10,2022-167H,2026-07-01T14:41:37.200768,15.34750016,.0005983,97.6950,353.3611,69.5445,290.6439,0,U,54689,999,19757,.39217465E-3,.1314E-3,0
JILIN-1 GAOFEN 03D48,2022-167P,2026-07-01T14:27:52.019424,15.35531004,.00073485,97.6885,352.7341,72.3436,287.8608,0,U,54695,999,19760,.39604612E-3,.1361E-3,0
STAR VIBE,2023-001A,2026-07-01T15:12:57.314016,15.43018908,.00066794,97.3163,247.1591,72.1569,288.0407,0,U,55009,999,19445,.4189996E-3,.18425E-3,0
BRO-8,2023-001C,2026-07-01T13:53:23.187840,15.49945539,.00062769,97.3200,247.9780,83.9743,276.2223,0,U,55011,999,19443,.68612121E-3,.38442E-3,0
CONNECTA T1.2,2023-001D,2026-07-01T04:03:13.760064,15.51821773,.0005061,97.3257,253.1164,58.8774,301.2975,0,U,55012,999,19471,.94414E-3,.56686E-3,0
